{"fetched_at":"2026-03-29T02:12:04Z","count":15717,"tles":[{"name":"STARLINK-11690 [DTC]","line1":"1 64242U 25119K   26087.43369331  .00270627  00000+0  20385-2 0  9994","line2":"2 64242  43.0022  96.0433 0001995 268.1928  91.8711 15.70911160 48196","category":"Starlink"}]}