{
  "norad_id": 64242,
  "name": "STARLINK-11690 [DTC]",
  "history": [
    {
      "epoch": "2026-03-28T10:24:31.101984Z",
      "apogee_km": 357.6356705802518,
      "perigee_km": 354.94769071665814,
      "latitude_deg": -5.6524663438108215e-06,
      "longitude_deg": 114.05949899611429,
      "height_km": 356.107220174313,
      "semi_major_axis_km": 6734.428680648455,
      "eccentricity": 0.00019957,
      "inclination_deg": 43.0022,
      "raan_deg": 96.0433,
      "arg_perigee_deg": 268.1928,
      "mean_anomaly_deg": 91.8711,
      "mean_motion_rev_day": 15.7091116
    }
  ]
}